SL-4 R/B                
1 39679U 14021B   26057.20010127  .00017319  00000+0  38526-3 0  9992
2 39679  51.6078  33.3120 0098380  61.0990 299.9820 15.38741073654506
ALOS-2                  
1 39766U 14029A   26057.28891520  .00001604  00000+0  22154-3 0  9999
2 39766  97.9194 156.0504 0001621  99.6893 260.4502 14.79489881635188
YAOGAN-29               
1 41038U 15069A   26057.32415736  .00000516  00000+0  70177-4 0  9995
2 41038  98.0165  85.7232 0002551  55.6273 304.5181 14.82981670554197
ASTRO-H (HITOMI)        
1 41337U 16012A   26057.19797352  .00003255  00000+0  19011-3 0  9990
2 41337  30.9998  70.6999 0009949 217.2509 142.7439 15.09908110550492
HXMT (HUIYAN)           
1 42758U 17034A   26057.32387067  .00005373  00000+0  27315-3 0  9995
2 42758  43.0145  79.8536 0031480 165.0755 195.1028 15.17295182480816
SAOCOM 1A               
1 43641U 18076A   26057.21622289  .00000755  00000+0  10141-3 0  9998
2 43641  97.8888 245.5506 0001322  82.2924 277.8439 14.82154858399669
H-2A R/B                
1 43682U 18084L   26057.17514531  .00018421  00000+0  44675-3 0  9995
2 43682  98.8752 272.1063 0026152  64.0728 296.3205 15.40782207404009
SAOCOM 1B               
1 46265U 20059A   26057.24746037 -.00000128  00000+0 -95497-5 0  9993
2 46265  97.8887 244.6792 0001446  83.1589 276.9789 14.82156024297059
CSS (TIANHE)            
1 48274U 21035A   26057.06690971  .00010434  00000+0  12875-3 0  9991
2 48274  41.4663 278.8535 0005884 197.5112 162.5524 15.60105415275793
COSMOS 2550             
1 48865U 21056A   26056.97558723 -.00000187  00000+0  14482-6 0  9991
2 48865  67.1417  76.3657 0008332 269.3874  90.6325 15.33840518261662
CZ-2C R/B               
1 52794U 22058K   26057.25786834  .00033161  00000+0  50069-3 0  9993
2 52794  50.1896  17.0542 0042071 152.0014 208.3232 15.53355385208355
