CCSDS_OMM_VERS = 2.0
CREATION_DATE  = 
ORIGINATOR     = 

OBJECT_NAME    = SL-4 R/B
OBJECT_ID      = 2014-021B
CENTER_NAME    = EARTH
REF_FRAME      = TEME
TIME_SYSTEM    = UTC
MEAN_ELEMENT_THEORY = SGP/SGP4

EPOCH          = 2026-02-26T04:48:08.749728
MEAN_MOTION    = 15.38741073
ECCENTRICITY   = .00983808
INCLINATION    = 51.6078
RA_OF_ASC_NODE = 33.3120
ARG_OF_PERICENTER = 61.0990
MEAN_ANOMALY   = 299.9820

EPHEMERIS_TYPE = 0
CLASSIFICATION_TYPE = U
NORAD_CAT_ID   = 39679
ELEMENT_SET_NO = 999
REV_AT_EPOCH   = 65450
BSTAR          = .38525992E-3
MEAN_MOTION_DOT = .17319E-3
MEAN_MOTION_DDOT = 0

CCSDS_OMM_VERS = 2.0
CREATION_DATE  = 
ORIGINATOR     = 

OBJECT_NAME    = ALOS-2
OBJECT_ID      = 2014-029A
CENTER_NAME    = EARTH
REF_FRAME      = TEME
TIME_SYSTEM    = UTC
MEAN_ELEMENT_THEORY = SGP/SGP4

EPOCH          = 2026-02-26T06:56:02.273280
MEAN_MOTION    = 14.79489881
ECCENTRICITY   = .00016214
INCLINATION    = 97.9194
RA_OF_ASC_NODE = 156.0504
ARG_OF_PERICENTER = 99.6893
MEAN_ANOMALY   = 260.4502

EPHEMERIS_TYPE = 0
CLASSIFICATION_TYPE = U
NORAD_CAT_ID   = 39766
ELEMENT_SET_NO = 999
REV_AT_EPOCH   = 63518
BSTAR          = .22153746E-3
MEAN_MOTION_DOT = .1604E-4
MEAN_MOTION_DDOT = 0

CCSDS_OMM_VERS = 2.0
CREATION_DATE  = 
ORIGINATOR     = 

OBJECT_NAME    = YAOGAN-29
OBJECT_ID      = 2015-069A
CENTER_NAME    = EARTH
REF_FRAME      = TEME
TIME_SYSTEM    = UTC
MEAN_ELEMENT_THEORY = SGP/SGP4

EPOCH          = 2026-02-26T07:46:47.195904
MEAN_MOTION    = 14.82981670
ECCENTRICITY   = .00025519
INCLINATION    = 98.0165
RA_OF_ASC_NODE = 85.7232
ARG_OF_PERICENTER = 55.6273
MEAN_ANOMALY   = 304.5181

EPHEMERIS_TYPE = 0
CLASSIFICATION_TYPE = U
NORAD_CAT_ID   = 41038
ELEMENT_SET_NO = 999
REV_AT_EPOCH   = 55419
BSTAR          = .70176927E-4
MEAN_MOTION_DOT = .516E-5
MEAN_MOTION_DDOT = 0

CCSDS_OMM_VERS = 2.0
CREATION_DATE  = 
ORIGINATOR     = 

OBJECT_NAME    = ASTRO-H (HITOMI)
OBJECT_ID      = 2016-012A
CENTER_NAME    = EARTH
REF_FRAME      = TEME
TIME_SYSTEM    = UTC
MEAN_ELEMENT_THEORY = SGP/SGP4

EPOCH          = 2026-02-26T04:45:04.912128
MEAN_MOTION    = 15.09908110
ECCENTRICITY   = .00099497
INCLINATION    = 30.9998
RA_OF_ASC_NODE = 70.6999
ARG_OF_PERICENTER = 217.2509
MEAN_ANOMALY   = 142.7439

EPHEMERIS_TYPE = 0
CLASSIFICATION_TYPE = U
NORAD_CAT_ID   = 41337
ELEMENT_SET_NO = 999
REV_AT_EPOCH   = 55049
BSTAR          = .19010889E-3
MEAN_MOTION_DOT = .3255E-4
MEAN_MOTION_DDOT = 0

CCSDS_OMM_VERS = 2.0
CREATION_DATE  = 
ORIGINATOR     = 

OBJECT_NAME    = HXMT (HUIYAN)
OBJECT_ID      = 2017-034A
CENTER_NAME    = EARTH
REF_FRAME      = TEME
TIME_SYSTEM    = UTC
MEAN_ELEMENT_THEORY = SGP/SGP4

EPOCH          = 2026-02-26T07:46:22.425888
MEAN_MOTION    = 15.17295182
ECCENTRICITY   = .00314801
INCLINATION    = 43.0145
RA_OF_ASC_NODE = 79.8536
ARG_OF_PERICENTER = 165.0755
MEAN_ANOMALY   = 195.1028

EPHEMERIS_TYPE = 0
CLASSIFICATION_TYPE = U
NORAD_CAT_ID   = 42758
ELEMENT_SET_NO = 999
REV_AT_EPOCH   = 48081
BSTAR          = .27315285E-3
MEAN_MOTION_DOT = .5373E-4
MEAN_MOTION_DDOT = 0

CCSDS_OMM_VERS = 2.0
CREATION_DATE  = 
ORIGINATOR     = 

OBJECT_NAME    = SAOCOM 1A
OBJECT_ID      = 2018-076A
CENTER_NAME    = EARTH
REF_FRAME      = TEME
TIME_SYSTEM    = UTC
MEAN_ELEMENT_THEORY = SGP/SGP4

EPOCH          = 2026-02-26T05:11:21.657696
MEAN_MOTION    = 14.82154858
ECCENTRICITY   = .00013229
INCLINATION    = 97.8888
RA_OF_ASC_NODE = 245.5506
ARG_OF_PERICENTER = 82.2924
MEAN_ANOMALY   = 277.8439

EPHEMERIS_TYPE = 0
CLASSIFICATION_TYPE = U
NORAD_CAT_ID   = 43641
ELEMENT_SET_NO = 999
REV_AT_EPOCH   = 39966
BSTAR          = .10140902E-3
MEAN_MOTION_DOT = .755E-5
MEAN_MOTION_DDOT = 0

CCSDS_OMM_VERS = 2.0
CREATION_DATE  = 
ORIGINATOR     = 

OBJECT_NAME    = H-2A R/B
OBJECT_ID      = 2018-084L
CENTER_NAME    = EARTH
REF_FRAME      = TEME
TIME_SYSTEM    = UTC
MEAN_ELEMENT_THEORY = SGP/SGP4

EPOCH          = 2026-02-26T04:12:12.554784
MEAN_MOTION    = 15.40782207
ECCENTRICITY   = .0026152
INCLINATION    = 98.8752
RA_OF_ASC_NODE = 272.1063
ARG_OF_PERICENTER = 64.0728
MEAN_ANOMALY   = 296.3205

EPHEMERIS_TYPE = 0
CLASSIFICATION_TYPE = U
NORAD_CAT_ID   = 43682
ELEMENT_SET_NO = 999
REV_AT_EPOCH   = 40400
BSTAR          = .44674657E-3
MEAN_MOTION_DOT = .18421E-3
MEAN_MOTION_DDOT = 0

CCSDS_OMM_VERS = 2.0
CREATION_DATE  = 
ORIGINATOR     = 

OBJECT_NAME    = SAOCOM 1B
OBJECT_ID      = 2020-059A
CENTER_NAME    = EARTH
REF_FRAME      = TEME
TIME_SYSTEM    = UTC
MEAN_ELEMENT_THEORY = SGP/SGP4

EPOCH          = 2026-02-26T05:56:20.575968
MEAN_MOTION    = 14.82156024
ECCENTRICITY   = .00014467
INCLINATION    = 97.8887
RA_OF_ASC_NODE = 244.6792
ARG_OF_PERICENTER = 83.1589
MEAN_ANOMALY   = 276.9789

EPHEMERIS_TYPE = 0
CLASSIFICATION_TYPE = U
NORAD_CAT_ID   = 46265
ELEMENT_SET_NO = 999
REV_AT_EPOCH   = 29705
BSTAR          = -.9549681E-5
MEAN_MOTION_DOT = -.128E-5
MEAN_MOTION_DDOT = 0

CCSDS_OMM_VERS = 2.0
CREATION_DATE  = 
ORIGINATOR     = 

OBJECT_NAME    = CSS (TIANHE)
OBJECT_ID      = 2021-035A
CENTER_NAME    = EARTH
REF_FRAME      = TEME
TIME_SYSTEM    = UTC
MEAN_ELEMENT_THEORY = SGP/SGP4

EPOCH          = 2026-02-26T01:36:20.998944
MEAN_MOTION    = 15.60105415
ECCENTRICITY   = .00058847
INCLINATION    = 41.4663
RA_OF_ASC_NODE = 278.8535
ARG_OF_PERICENTER = 197.5112
MEAN_ANOMALY   = 162.5524

EPHEMERIS_TYPE = 0
CLASSIFICATION_TYPE = U
NORAD_CAT_ID   = 48274
ELEMENT_SET_NO = 999
REV_AT_EPOCH   = 27579
BSTAR          = .12875241E-3
MEAN_MOTION_DOT = .10434E-3
MEAN_MOTION_DDOT = 0

CCSDS_OMM_VERS = 2.0
CREATION_DATE  = 
ORIGINATOR     = 

OBJECT_NAME    = COSMOS 2550
OBJECT_ID      = 2021-056A
CENTER_NAME    = EARTH
REF_FRAME      = TEME
TIME_SYSTEM    = UTC
MEAN_ELEMENT_THEORY = SGP/SGP4

EPOCH          = 2026-02-25T23:24:50.736672
MEAN_MOTION    = 15.33840518
ECCENTRICITY   = .00083325
INCLINATION    = 67.1417
RA_OF_ASC_NODE = 76.3657
ARG_OF_PERICENTER = 269.3874
MEAN_ANOMALY   = 90.6325

EPHEMERIS_TYPE = 0
CLASSIFICATION_TYPE = U
NORAD_CAT_ID   = 48865
ELEMENT_SET_NO = 999
REV_AT_EPOCH   = 26166
BSTAR          = .144822E-6
MEAN_MOTION_DOT = -.187E-5
MEAN_MOTION_DDOT = 0

CCSDS_OMM_VERS = 2.0
CREATION_DATE  = 
ORIGINATOR     = 

OBJECT_NAME    = CZ-2C R/B
OBJECT_ID      = 2022-058K
CENTER_NAME    = EARTH
REF_FRAME      = TEME
TIME_SYSTEM    = UTC
MEAN_ELEMENT_THEORY = SGP/SGP4

EPOCH          = 2026-02-26T06:11:19.824576
MEAN_MOTION    = 15.53355385
ECCENTRICITY   = .00420712
INCLINATION    = 50.1896
RA_OF_ASC_NODE = 17.0542
ARG_OF_PERICENTER = 152.0014
MEAN_ANOMALY   = 208.3232

EPHEMERIS_TYPE = 0
CLASSIFICATION_TYPE = U
NORAD_CAT_ID   = 52794
ELEMENT_SET_NO = 999
REV_AT_EPOCH   = 20835
BSTAR          = .50068585E-3
MEAN_MOTION_DOT = .33161E-3
MEAN_MOTION_DDOT = 0

